GLOBALSTAR M035 [-]     
1 25851U 99037A   23328.08172578 -.00000045  00000+0  72261-3 0  9995
2 25851  51.9950 248.5666 0013788 132.0275 326.1880 11.04527689 33159
GLOBALSTAR M032 [-]     
1 25852U 99037B   23328.55172977 -.00000059  00000+0  23097-3 0  9999
2 25852  51.9927 112.0870 0007191 285.4873  74.5132 11.19045770 70904
GLOBALSTAR M051 [-]     
1 25853U 99037C   23328.46945762 -.00000060  00000+0  28518-3 0  9995
2 25853  51.9816 337.6629 0001463 276.9923  83.0722 11.42192672 67171
GLOBALSTAR M030 [-]     
1 25854U 99037D   23328.38351957 -.00000092  00000+0 -35807-3 0  9999
2 25854  51.9848 180.2663 0005721  95.8057 264.3412 11.55083992 84081
GLOBALSTAR M048 [-]     
1 25872U 99041A   23328.12908907 -.00000070  00000+0 -94356-5 0  9991
2 25872  51.9367 251.4327 0012618 279.3369 185.9674 11.33841333 60206
GLOBALSTAR M026 [-]     
1 25873U 99041B   23328.39080015  .00000004  00000+0  25165-2 0  9996
2 25873  52.0049  11.8553 0001450  37.1374  52.6226 11.06829284 85282
GLOBALSTAR M043 [-]     
1 25874U 99041C   23328.30661880 -.00000068  00000+0  71578-5 0  9996
2 25874  51.9420 335.9042 0013445  58.9823  35.4558 11.25675734 58584
GLOBALSTAR M028 [-]     
1 25875U 99041D   23328.56562511 -.00000060  00000+0  25461-3 0  9996
2 25875  51.9617  94.4977 0062698 272.0296  87.3385 12.50544981118785
